{
  "type": "FeatureCollection",
  "features": [
    {
      "type": "Feature",
      "properties": {
        "norad_id": 57400,
        "name": "TIANMU-1 08",
        "group": "weather",
        "lat": 60.00154440636257,
        "lon": 15.478430278403739,
        "alt_km": 472.8305788005582,
        "timestamp": "2025-12-04T10:51:49.749817+00:00",
        "meta_object_name": "TIANMU-1 08",
        "meta_object_id": "2023-101B",
        "meta_epoch": "2025-12-04T04:18:40.776768",
        "meta_mean_motion": 15.27863124,
        "meta_eccentricity": 0.0007486,
        "meta_inclination": 97.288,
        "meta_ra_of_asc_node": 28.0193,
        "meta_arg_of_pericenter": 107.8888,
        "meta_mean_anomaly": 252.3168,
        "meta_ephemeris_type": 0,
        "meta_classification_type": "U",
        "meta_norad_cat_id": 57400,
        "meta_element_set_no": 999,
        "meta_rev_at_epoch": 13184,
        "meta_bstar": 0.00057448,
        "meta_mean_motion_dot": 0.00015583,
        "meta_mean_motion_ddot": 0,
        "tle_line1": "1 57400U 23101B   25338.17963862  .00015583  00000+0  57448-3 0  9998",
        "tle_line2": "2 57400  97.2880  28.0193 0007486 107.8888 252.3168 15.27863124131843"
      },
      "geometry": {
        "type": "Point",
        "coordinates": [
          15.478430278403739,
          60.00154440636257
        ]
      }
    },
    {
      "type": "Feature",
      "properties": {
        "norad_id": 57401,
        "name": "TIANMU-1 09",
        "group": "weather",
        "lat": 46.59964260037397,
        "lon": -144.4227064763306,
        "alt_km": 473.9389159630082,
        "timestamp": "2025-12-04T10:51:49.749828+00:00",
        "meta_object_name": "TIANMU-1 09",
        "meta_object_id": "2023-101C",
        "meta_epoch": "2025-12-04T03:59:51.593568",
        "meta_mean_motion": 15.27885379,
        "meta_eccentricity": 0.0006755,
        "meta_inclination": 97.2837,
        "meta_ra_of_asc_node": 27.5245,
        "meta_arg_of_pericenter": 107.2359,
        "meta_mean_anomaly": 252.9621,
        "meta_ephemeris_type": 0,
        "meta_classification_type": "U",
        "meta_norad_cat_id": 57401,
        "meta_element_set_no": 999,
        "meta_rev_at_epoch": 13184,
        "meta_bstar": 0.00060406,
        "meta_mean_motion_dot": 0.000164,
        "meta_mean_motion_ddot": 0,
        "tle_line1": "1 57401U 23101C   25338.16656937  .00016400  00000+0  60406-3 0  9997",
        "tle_line2": "2 57401  97.2837  27.5245 0006755 107.2359 252.9621 15.27885379131849"
      },
      "geometry": {
        "type": "Point",
        "coordinates": [
          -144.4227064763306,
          46.59964260037397
        ]
      }
    },
    {
      "type": "Feature",
      "properties": {
        "norad_id": 57402,
        "name": "TIANMU-1 10",
        "group": "weather",
        "lat": -54.45602834356714,
        "lon": 38.969653501167414,
        "alt_km": 494.7792671887373,
        "timestamp": "2025-12-04T10:51:49.749838+00:00",
        "meta_object_name": "TIANMU-1 10",
        "meta_object_id": "2023-101D",
        "meta_epoch": "2025-12-04T04:49:03.650880",
        "meta_mean_motion": 15.27877814,
        "meta_eccentricity": 0.0008531,
        "meta_inclination": 97.2918,
        "meta_ra_of_asc_node": 28.3986,
        "meta_arg_of_pericenter": 108.0745,
        "meta_mean_anomaly": 252.1424,
        "meta_ephemeris_type": 0,
        "meta_classification_type": "U",
        "meta_norad_cat_id": 57402,
        "meta_element_set_no": 999,
        "meta_rev_at_epoch": 13184,
        "meta_bstar": 0.00059184,
        "meta_mean_motion_dot": 0.00016068,
        "meta_mean_motion_ddot": 0,
        "tle_line1": "1 57402U 23101D   25338.20073670  .00016068  00000+0  59184-3 0  9991",
        "tle_line2": "2 57402  97.2918  28.3986 0008531 108.0745 252.1424 15.27877814131841"
      },
      "geometry": {
        "type": "Point",
        "coordinates": [
          38.969653501167414,
          -54.45602834356714
        ]
      }
    },
    {
      "type": "Feature",
      "properties": {
        "norad_id": 57490,
        "name": "FENGYUN 3F",
        "group": "weather",
        "lat": -3.8831630047722103,
        "lon": -133.7167071229199,
        "alt_km": 829.1856574138155,
        "timestamp": "2025-12-04T10:51:49.749848+00:00",
        "meta_object_name": "FENGYUN 3F",
        "meta_object_id": "2023-111A",
        "meta_epoch": "2025-12-04T04:55:38.131680",
        "meta_mean_motion": 14.19890126,
        "meta_eccentricity": 6.82e-05,
        "meta_inclination": 98.7094,
        "meta_ra_of_asc_node": 46.6361,
        "meta_arg_of_pericenter": 88.1308,
        "meta_mean_anomaly": 271.9946,
        "meta_ephemeris_type": 0,
        "meta_classification_type": "U",
        "meta_norad_cat_id": 57490,
        "meta_element_set_no": 999,
        "meta_rev_at_epoch": 12119,
        "meta_bstar": 0.00011465,
        "meta_mean_motion_dot": 2e-06,
        "meta_mean_motion_ddot": 0,
        "tle_line1": "1 57490U 23111A   25338.20530245  .00000200  00000+0  11465-3 0  9996",
        "tle_line2": "2 57490  98.7094  46.6361 0000682  88.1308 271.9946 14.19890126121197"
      },
      "geometry": {
        "type": "Point",
        "coordinates": [
          -133.7167071229199,
          -3.8831630047722103
        ]
      }
    },
    {
      "type": "Feature",
      "properties": {
        "norad_id": 58584,
        "name": "ARKTIKA-M 2",
        "group": "weather",
        "lat": 51.825006975053356,
        "lon": -144.2276445002249,
        "alt_km": 30091.84892321417,
        "timestamp": "2025-12-04T10:51:49.749860+00:00",
        "meta_object_name": "ARKTIKA-M 2",
        "meta_object_id": "2023-198A",
        "meta_epoch": "2025-12-03T08:34:19.284960",
        "meta_mean_motion": 2.00605176,
        "meta_eccentricity": 0.68642509,
        "meta_inclination": 63.2223,
        "meta_ra_of_asc_node": 175.9121,
        "meta_arg_of_pericenter": 268.1397,
        "meta_mean_anomaly": 18.842,
        "meta_ephemeris_type": 0,
        "meta_classification_type": "U",
        "meta_norad_cat_id": 58584,
        "meta_element_set_no": 999,
        "meta_rev_at_epoch": 1439,
        "meta_bstar": 0,
        "meta_mean_motion_dot": 2.24e-06,
        "meta_mean_motion_ddot": 0,
        "tle_line1": "1 58584U 23198A   25337.35716765  .00000224  00000+0  00000+0 0  9999",
        "tle_line2": "2 58584  63.2223 175.9121 6864250 268.1397  18.8420  2.00605176 14390"
      },
      "geometry": {
        "type": "Point",
        "coordinates": [
          -144.2276445002249,
          51.825006975053356
        ]
      }
    },
    {
      "type": "Feature",
      "properties": {
        "norad_id": 58645,
        "name": "TIANMU-1 11",
        "group": "weather",
        "lat": -46.59201461185699,
        "lon": 170.3681156147775,
        "alt_km": 501.9596747756859,
        "timestamp": "2025-12-04T10:51:49.749872+00:00",
        "meta_object_name": "TIANMU-1 11",
        "meta_object_id": "2023-205A",
        "meta_epoch": "2025-12-04T00:25:05.814624",
        "meta_mean_motion": 15.24431871,
        "meta_eccentricity": 0.00087827,
        "meta_inclination": 97.3609,
        "meta_ra_of_asc_node": 357.7955,
        "meta_arg_of_pericenter": 344.6679,
        "meta_mean_anomaly": 15.4292,
        "meta_ephemeris_type": 0,
        "meta_classification_type": "U",
        "meta_norad_cat_id": 58645,
        "meta_element_set_no": 999,
        "meta_rev_at_epoch": 10776,
        "meta_bstar": 0.00047697898,
        "meta_mean_motion_dot": 0.00011651,
        "meta_mean_motion_ddot": 0,
        "tle_line1": "1 58645U 23205A   25338.01742841  .00011651  00000+0  47698-3 0  9998",
        "tle_line2": "2 58645  97.3609 357.7955 0008782 344.6679  15.4292 15.24431871107769"
      },
      "geometry": {
        "type": "Point",
        "coordinates": [
          170.3681156147775,
          -46.59201461185699
        ]
      }
    },
    {
      "type": "Feature",
      "properties": {
        "norad_id": 58646,
        "name": "TIANMU-1 12",
        "group": "weather",
        "lat": 79.49173278074053,
        "lon": -46.141514581362486,
        "alt_km": 487.1887362817488,
        "timestamp": "2025-12-04T10:51:49.749882+00:00",
        "meta_object_name": "TIANMU-1 12",
        "meta_object_id": "2023-205B",
        "meta_epoch": "2025-12-03T23:28:31.077408",
        "meta_mean_motion": 15.24344811,
        "meta_eccentricity": 0.00066142,
        "meta_inclination": 97.3597,
        "meta_ra_of_asc_node": 357.5652,
        "meta_arg_of_pericenter": 330.5443,
        "meta_mean_anomaly": 29.5421,
        "meta_ephemeris_type": 0,
        "meta_classification_type": "U",
        "meta_norad_cat_id": 58646,
        "meta_element_set_no": 999,
        "meta_rev_at_epoch": 10774,
        "meta_bstar": 0.00047843524,
        "meta_mean_motion_dot": 0.00011652,
        "meta_mean_motion_ddot": 0,
        "tle_line1": "1 58646U 23205B   25337.97813747  .00011652  00000+0  47844-3 0  9991",
        "tle_line2": "2 58646  97.3597 357.5652 0006614 330.5443  29.5421 15.24344811107748"
      },
      "geometry": {
        "type": "Point",
        "coordinates": [
          -46.141514581362486,
          79.49173278074053
        ]
      }
    }
  ]
}